{
  "type": "FeatureCollection",
  "features": [
    {
      "type": "Feature",
      "properties": {
        "norad_id": 30941,
        "name": "FENGYUN 1C DEB",
        "group": "fengyun-1c-debris",
        "lat": 80.73581554191291,
        "lon": 84.846642225768,
        "alt_km": 793.0211424885201,
        "timestamp": "2025-12-06T16:45:43.001688+00:00",
        "meta_object_name": "FENGYUN 1C DEB",
        "meta_object_id": "1999-025BAF",
        "meta_epoch": "2025-12-05T13:28:35.110272",
        "meta_mean_motion": 14.30932088,
        "meta_eccentricity": 0.00342732,
        "meta_inclination": 98.5475,
        "meta_ra_of_asc_node": 196.505,
        "meta_arg_of_pericenter": 337.7359,
        "meta_mean_anomaly": 22.2334,
        "meta_ephemeris_type": 0,
        "meta_classification_type": "U",
        "meta_norad_cat_id": 30941,
        "meta_element_set_no": 999,
        "meta_rev_at_epoch": 96523,
        "meta_bstar": 0.0035532932,
        "meta_mean_motion_dot": 9.364e-05,
        "meta_mean_motion_ddot": 0,
        "tle_line1": "1 30941U 99025BAF 25339.56151748  .00009364  00000+0  35533-2 0  9993",
        "tle_line2": "2 30941  98.5475 196.5050 0034273 337.7359  22.2334 14.30932088965238"
      },
      "geometry": {
        "type": "Point",
        "coordinates": [
          84.846642225768,
          80.73581554191291
        ]
      }
    },
    {
      "type": "Feature",
      "properties": {
        "norad_id": 30942,
        "name": "FENGYUN 1C DEB",
        "group": "fengyun-1c-debris",
        "lat": 81.28543654437397,
        "lon": -115.68294785328588,
        "alt_km": 751.2780279713779,
        "timestamp": "2025-12-06T16:45:43.001699+00:00",
        "meta_object_name": "FENGYUN 1C DEB",
        "meta_object_id": "1999-025BAG",
        "meta_epoch": "2025-12-06T06:14:57.217344",
        "meta_mean_motion": 14.14829252,
        "meta_eccentricity": 0.01378631,
        "meta_inclination": 98.6792,
        "meta_ra_of_asc_node": 338.6787,
        "meta_arg_of_pericenter": 124.7134,
        "meta_mean_anomaly": 257.0537,
        "meta_ephemeris_type": 0,
        "meta_classification_type": "U",
        "meta_norad_cat_id": 30942,
        "meta_element_set_no": 999,
        "meta_rev_at_epoch": 96553,
        "meta_bstar": 0.00036895989,
        "meta_mean_motion_dot": 7.39e-06,
        "meta_mean_motion_ddot": 0,
        "tle_line1": "1 30942U 99025BAG 25340.26038446  .00000739  00000+0  36896-3 0  9993",
        "tle_line2": "2 30942  98.6792 338.6787 0137863 124.7134 257.0537 14.14829252965538"
      },
      "geometry": {
        "type": "Point",
        "coordinates": [
          -115.68294785328588,
          81.28543654437397
        ]
      }
    },
    {
      "type": "Feature",
      "properties": {
        "norad_id": 30943,
        "name": "FENGYUN 1C DEB",
        "group": "fengyun-1c-debris",
        "lat": -64.37945639380001,
        "lon": 13.646499968147772,
        "alt_km": 916.8919467131127,
        "timestamp": "2025-12-06T16:45:43.001709+00:00",
        "meta_object_name": "FENGYUN 1C DEB",
        "meta_object_id": "1999-025BAH",
        "meta_epoch": "2025-12-05T12:00:36.787392",
        "meta_mean_motion": 14.04477521,
        "meta_eccentricity": 0.00510874,
        "meta_inclination": 98.7972,
        "meta_ra_of_asc_node": 353.6469,
        "meta_arg_of_pericenter": 85.5572,
        "meta_mean_anomaly": 275.1429,
        "meta_ephemeris_type": 0,
        "meta_classification_type": "U",
        "meta_norad_cat_id": 30943,
        "meta_element_set_no": 999,
        "meta_rev_at_epoch": 95640,
        "meta_bstar": 0.00030643081,
        "meta_mean_motion_dot": 4.52e-06,
        "meta_mean_motion_ddot": 0,
        "tle_line1": "1 30943U 99025BAH 25339.50042578  .00000452  00000+0  30643-3 0  9996",
        "tle_line2": "2 30943  98.7972 353.6469 0051087  85.5572 275.1429 14.04477521956401"
      },
      "geometry": {
        "type": "Point",
        "coordinates": [
          13.646499968147772,
          -64.37945639380001
        ]
      }
    },
    {
      "type": "Feature",
      "properties": {
        "norad_id": 30944,
        "name": "FENGYUN 1C DEB",
        "group": "fengyun-1c-debris",
        "lat": 23.962089132436223,
        "lon": -139.96063923544617,
        "alt_km": 631.7577276335824,
        "timestamp": "2025-12-06T16:45:43.001719+00:00",
        "meta_object_name": "FENGYUN 1C DEB",
        "meta_object_id": "1999-025BAJ",
        "meta_epoch": "2025-12-06T02:58:03.336672",
        "meta_mean_motion": 14.52427462,
        "meta_eccentricity": 0.01492899,
        "meta_inclination": 98.8513,
        "meta_ra_of_asc_node": 35.4621,
        "meta_arg_of_pericenter": 120.5367,
        "meta_mean_anomaly": 270.515,
        "meta_ephemeris_type": 0,
        "meta_classification_type": "U",
        "meta_norad_cat_id": 30944,
        "meta_element_set_no": 999,
        "meta_rev_at_epoch": 98980,
        "meta_bstar": 0.00029790756,
        "meta_mean_motion_dot": 1.349e-05,
        "meta_mean_motion_ddot": 0,
        "tle_line1": "1 30944U 99025BAJ 25340.12364973  .00001349  00000+0  29791-3 0  9991",
        "tle_line2": "2 30944  98.8513  35.4621 0149289 120.5367 270.5150 14.52427462989805"
      },
      "geometry": {
        "type": "Point",
        "coordinates": [
          -139.96063923544617,
          23.962089132436223
        ]
      }
    },
    {
      "type": "Feature",
      "properties": {
        "norad_id": 30945,
        "name": "FENGYUN 1C DEB",
        "group": "fengyun-1c-debris",
        "lat": 39.181170284672895,
        "lon": -18.854673993818157,
        "alt_km": 768.5020765062854,
        "timestamp": "2025-12-06T16:45:43.001729+00:00",
        "meta_object_name": "FENGYUN 1C DEB",
        "meta_object_id": "1999-025BAK",
        "meta_epoch": "2025-12-06T00:02:18.082752",
        "meta_mean_motion": 14.2962422,
        "meta_eccentricity": 0.00309267,
        "meta_inclination": 99.3878,
        "meta_ra_of_asc_node": 348.1441,
        "meta_arg_of_pericenter": 57.1295,
        "meta_mean_anomaly": 358.584,
        "meta_ephemeris_type": 0,
        "meta_classification_type": "U",
        "meta_norad_cat_id": 30945,
        "meta_element_set_no": 999,
        "meta_rev_at_epoch": 96341,
        "meta_bstar": 0.0028410767,
        "meta_mean_motion_dot": 7.27e-05,
        "meta_mean_motion_ddot": 0,
        "tle_line1": "1 30945U 99025BAK 25340.00159818  .00007270  00000+0  28411-2 0  9995",
        "tle_line2": "2 30945  99.3878 348.1441 0030926  57.1295 358.5840 14.29624220963419"
      },
      "geometry": {
        "type": "Point",
        "coordinates": [
          -18.854673993818157,
          39.181170284672895
        ]
      }
    },
    {
      "type": "Feature",
      "properties": {
        "norad_id": 30946,
        "name": "FENGYUN 1C DEB",
        "group": "fengyun-1c-debris",
        "lat": -43.924076798118236,
        "lon": 104.28818249494412,
        "alt_km": 753.8820294024199,
        "timestamp": "2025-12-06T16:45:43.001739+00:00",
        "meta_object_name": "FENGYUN 1C DEB",
        "meta_object_id": "1999-025BAL",
        "meta_epoch": "2025-12-04T07:13:49.480896",
        "meta_mean_motion": 14.48061123,
        "meta_eccentricity": 0.0089177,
        "meta_inclination": 99.0397,
        "meta_ra_of_asc_node": 92.906,
        "meta_arg_of_pericenter": 218.0934,
        "meta_mean_anomaly": 207.0045,
        "meta_ephemeris_type": 0,
        "meta_classification_type": "U",
        "meta_norad_cat_id": 30946,
        "meta_element_set_no": 999,
        "meta_rev_at_epoch": 98229,
        "meta_bstar": 0.0019751,
        "meta_mean_motion_dot": 7.675e-05,
        "meta_mean_motion_ddot": 0,
        "tle_line1": "1 30946U 99025BAL 25338.30126714  .00007675  00000+0  19751-2 0  9991",
        "tle_line2": "2 30946  99.0397  92.9060 0089177 218.0934 207.0045 14.48061123982294"
      },
      "geometry": {
        "type": "Point",
        "coordinates": [
          104.28818249494412,
          -43.924076798118236
        ]
      }
    },
    {
      "type": "Feature",
      "properties": {
        "norad_id": 30947,
        "name": "FENGYUN 1C DEB",
        "group": "fengyun-1c-debris",
        "lat": -65.440078566957,
        "lon": 30.34570565895119,
        "alt_km": 707.5165289696488,
        "timestamp": "2025-12-06T16:45:43.001750+00:00",
        "meta_object_name": "FENGYUN 1C DEB",
        "meta_object_id": "1999-025BAM",
        "meta_epoch": "2025-12-06T03:55:15.396096",
        "meta_mean_motion": 14.3802063,
        "meta_eccentricity": 0.00956591,
        "meta_inclination": 98.8087,
        "meta_ra_of_asc_node": 229.6325,
        "meta_arg_of_pericenter": 267.4317,
        "meta_mean_anomaly": 91.5916,
        "meta_ephemeris_type": 0,
        "meta_classification_type": "U",
        "meta_norad_cat_id": 30947,
        "meta_element_set_no": 999,
        "meta_rev_at_epoch": 98398,
        "meta_bstar": 0.00057488144,
        "meta_mean_motion_dot": 1.785e-05,
        "meta_mean_motion_ddot": 0,
        "tle_line1": "1 30947U 99025BAM 25340.16337264  .00001785  00000+0  57488-3 0  9999",
        "tle_line2": "2 30947  98.8087 229.6325 0095659 267.4317  91.5916 14.38020630983983"
      },
      "geometry": {
        "type": "Point",
        "coordinates": [
          30.34570565895119,
          -65.440078566957
        ]
      }
    }
  ]
}